STARLINK-36726          
1 67925U 26036X   26059.83335647 -.01564314  70389-3 -39583-2 0  9993
2 67925  42.9966 304.0912 0001597 277.0387 214.9798 15.94695382  2220
STARLINK-36758          
1 67926U 26036Y   26059.83335647 -.01573741  71280-3 -39501-2 0  9999
2 67926  42.9965 304.0855 0001615 272.4342 221.7590 15.94846971  2225
STARLINK-36728          
1 67927U 26036Z   26059.83335647 -.01596743  73432-3 -39445-2 0  9995
2 67927  42.9965 304.0736 0001674 275.1023 223.7210 15.95145942  2227
STARLINK-36771          
1 67928U 26036AA  26059.83335647 -.01579961  71907-3 -39345-2 0  9993
2 67928  42.9964 304.0789 0001611 277.4630 219.2682 15.94994461  2225
STARLINK-36809          
1 67929U 26036AB  26059.83335647 -.01582956  72367-3 -38816-2 0  9995
2 67929  42.9964 304.0680 0001634 270.5268 230.5534 15.95280579  2223
STARLINK-36865          
1 67930U 26036AC  26059.83335647 -.01614062  75238-3 -38952-2 0  9992
2 67930  42.9964 304.0564 0001651 273.8417 231.7773 15.95579750  2227
STARLINK-36781          
1 67931U 26036AD  26059.83335647 -.01600562  73970-3 -38935-2 0  9995
2 67931  42.9965 304.0624 0001571 278.0479 225.2698 15.95431304  2228
