CCSDS_OMM_VERS = 2.0
CREATION_DATE  = 
ORIGINATOR     = 

OBJECT_NAME    = STARLINK-36726
OBJECT_ID      = 2026-036X
CENTER_NAME    = EARTH
REF_FRAME      = TEME
TIME_SYSTEM    = UTC
MEAN_ELEMENT_THEORY = SGP/SGP4

EPOCH          = 2026-02-28T20:00:01.999008
MEAN_MOTION    = 15.94695382
ECCENTRICITY   = .0001597
INCLINATION    = 42.9966
RA_OF_ASC_NODE = 304.0912
ARG_OF_PERICENTER = 277.0387
MEAN_ANOMALY   = 214.9798

EPHEMERIS_TYPE = 0
CLASSIFICATION_TYPE = U
NORAD_CAT_ID   = 67925
ELEMENT_SET_NO = 999
REV_AT_EPOCH   = 222
BSTAR          = -.39583E-2
MEAN_MOTION_DOT = -.1564314E-1
MEAN_MOTION_DDOT = .70389E-3

CCSDS_OMM_VERS = 2.0
CREATION_DATE  = 
ORIGINATOR     = 

OBJECT_NAME    = STARLINK-36758
OBJECT_ID      = 2026-036Y
CENTER_NAME    = EARTH
REF_FRAME      = TEME
TIME_SYSTEM    = UTC
MEAN_ELEMENT_THEORY = SGP/SGP4

EPOCH          = 2026-02-28T20:00:01.999008
MEAN_MOTION    = 15.94846971
ECCENTRICITY   = .0001615
INCLINATION    = 42.9965
RA_OF_ASC_NODE = 304.0855
ARG_OF_PERICENTER = 272.4342
MEAN_ANOMALY   = 221.7590

EPHEMERIS_TYPE = 0
CLASSIFICATION_TYPE = U
NORAD_CAT_ID   = 67926
ELEMENT_SET_NO = 999
REV_AT_EPOCH   = 222
BSTAR          = -.39501E-2
MEAN_MOTION_DOT = -.1573741E-1
MEAN_MOTION_DDOT = .7128E-3

CCSDS_OMM_VERS = 2.0
CREATION_DATE  = 
ORIGINATOR     = 

OBJECT_NAME    = STARLINK-36728
OBJECT_ID      = 2026-036Z
CENTER_NAME    = EARTH
REF_FRAME      = TEME
TIME_SYSTEM    = UTC
MEAN_ELEMENT_THEORY = SGP/SGP4

EPOCH          = 2026-02-28T20:00:01.999008
MEAN_MOTION    = 15.95145942
ECCENTRICITY   = .0001674
INCLINATION    = 42.9965
RA_OF_ASC_NODE = 304.0736
ARG_OF_PERICENTER = 275.1023
MEAN_ANOMALY   = 223.7210

EPHEMERIS_TYPE = 0
CLASSIFICATION_TYPE = U
NORAD_CAT_ID   = 67927
ELEMENT_SET_NO = 999
REV_AT_EPOCH   = 222
BSTAR          = -.39445E-2
MEAN_MOTION_DOT = -.1596743E-1
MEAN_MOTION_DDOT = .73432E-3

CCSDS_OMM_VERS = 2.0
CREATION_DATE  = 
ORIGINATOR     = 

OBJECT_NAME    = STARLINK-36771
OBJECT_ID      = 2026-036AA
CENTER_NAME    = EARTH
REF_FRAME      = TEME
TIME_SYSTEM    = UTC
MEAN_ELEMENT_THEORY = SGP/SGP4

EPOCH          = 2026-02-28T20:00:01.999008
MEAN_MOTION    = 15.94994461
ECCENTRICITY   = .0001611
INCLINATION    = 42.9964
RA_OF_ASC_NODE = 304.0789
ARG_OF_PERICENTER = 277.4630
MEAN_ANOMALY   = 219.2682

EPHEMERIS_TYPE = 0
CLASSIFICATION_TYPE = U
NORAD_CAT_ID   = 67928
ELEMENT_SET_NO = 999
REV_AT_EPOCH   = 222
BSTAR          = -.39345E-2
MEAN_MOTION_DOT = -.1579961E-1
MEAN_MOTION_DDOT = .71907E-3

CCSDS_OMM_VERS = 2.0
CREATION_DATE  = 
ORIGINATOR     = 

OBJECT_NAME    = STARLINK-36809
OBJECT_ID      = 2026-036AB
CENTER_NAME    = EARTH
REF_FRAME      = TEME
TIME_SYSTEM    = UTC
MEAN_ELEMENT_THEORY = SGP/SGP4

EPOCH          = 2026-02-28T20:00:01.999008
MEAN_MOTION    = 15.95280579
ECCENTRICITY   = .0001634
INCLINATION    = 42.9964
RA_OF_ASC_NODE = 304.0680
ARG_OF_PERICENTER = 270.5268
MEAN_ANOMALY   = 230.5534

EPHEMERIS_TYPE = 0
CLASSIFICATION_TYPE = U
NORAD_CAT_ID   = 67929
ELEMENT_SET_NO = 999
REV_AT_EPOCH   = 222
BSTAR          = -.38816E-2
MEAN_MOTION_DOT = -.1582956E-1
MEAN_MOTION_DDOT = .72367E-3

CCSDS_OMM_VERS = 2.0
CREATION_DATE  = 
ORIGINATOR     = 

OBJECT_NAME    = STARLINK-36865
OBJECT_ID      = 2026-036AC
CENTER_NAME    = EARTH
REF_FRAME      = TEME
TIME_SYSTEM    = UTC
MEAN_ELEMENT_THEORY = SGP/SGP4

EPOCH          = 2026-02-28T20:00:01.999008
MEAN_MOTION    = 15.95579750
ECCENTRICITY   = .0001651
INCLINATION    = 42.9964
RA_OF_ASC_NODE = 304.0564
ARG_OF_PERICENTER = 273.8417
MEAN_ANOMALY   = 231.7773

EPHEMERIS_TYPE = 0
CLASSIFICATION_TYPE = U
NORAD_CAT_ID   = 67930
ELEMENT_SET_NO = 999
REV_AT_EPOCH   = 222
BSTAR          = -.38952E-2
MEAN_MOTION_DOT = -.1614062E-1
MEAN_MOTION_DDOT = .75238E-3

CCSDS_OMM_VERS = 2.0
CREATION_DATE  = 
ORIGINATOR     = 

OBJECT_NAME    = STARLINK-36781
OBJECT_ID      = 2026-036AD
CENTER_NAME    = EARTH
REF_FRAME      = TEME
TIME_SYSTEM    = UTC
MEAN_ELEMENT_THEORY = SGP/SGP4

EPOCH          = 2026-02-28T20:00:01.999008
MEAN_MOTION    = 15.95431304
ECCENTRICITY   = .0001571
INCLINATION    = 42.9965
RA_OF_ASC_NODE = 304.0624
ARG_OF_PERICENTER = 278.0479
MEAN_ANOMALY   = 225.2698

EPHEMERIS_TYPE = 0
CLASSIFICATION_TYPE = U
NORAD_CAT_ID   = 67931
ELEMENT_SET_NO = 999
REV_AT_EPOCH   = 222
BSTAR          = -.38935E-2
MEAN_MOTION_DOT = -.1600562E-1
MEAN_MOTION_DDOT = .7397E-3

